{
  "nodes": {
    "152398450": {
      "x": -97.7459471,
      "y": 30.2916954
    },
    "152398451": {
      "x": -97.7463927,
      "y": 30.29172
    },
    "152450091": {
      "x": -97.7476565,
      "y": 30.2899417
    },
    "152484842": {
      "x": -97.743624,
      "y": 30.2906062
    },
    "152484845": {
      "x": -97.744415,
      "y": 30.2906603
    },
    "152484847": {
      "x": -97.7453679,
      "y": 30.2907288
    },
    "152484850": {
      "x": -97.7460351,
      "y": 30.2907712
    },
    "152484852": {
      "x": -97.746512,
      "y": 30.2908014
    },
    "152484855": {
      "x": -97.74757,
      "y": 30.2908686
    },
    "152497112": {
      "x": -97.7451488,
      "y": 30.293473
    },
    "152547492": {
      "x": -97.7437618,
      "y": 30.2892407
    },
    "152580031": {
      "x": -97.7459787,
      "y": 30.291337
    },
    "152580033": {
      "x": -97.7457735,
      "y": 30.293518
    },
    "152598876": {
      "x": -97.744539,
      "y": 30.2893039
    },
    "152598878": {
      "x": -97.7466492,
      "y": 30.2894362
    },
    "152598880": {
      "x": -97.747708,
      "y": 30.2894686
    },
    "152636858": {
      "x": -97.7444741,
      "y": 30.2899718
    },
    "152636860": {
      "x": -97.7441414,
      "y": 30.2934055
    },
    "152713997": {
      "x": -97.746592,
      "y": 30.290112
    }
  },
  "edges": [
    {
      "from": "152398450",
      "to": "152398451",
      "length_m": 42.871,
      "name": "Shoal Cliff Court",
      "highway": "residential",
      "oneway": false,
      "maxspeed": null,
      "lanes": null
    },
    {
      "from": "152398450",
      "to": "152580033",
      "length_m": 203.348,
      "name": "San Pedro Street",
      "highway": "residential",
      "oneway": true,
      "maxspeed": "25 mph",
      "lanes": "2"
    },
    {
      "from": "152398451",
      "to": "152398450",
      "length_m": 42.871,
      "name": "Shoal Cliff Court",
      "highway": "residential",
      "oneway": false,
      "maxspeed": null,
      "lanes": null
    },
    {
      "from": "152450091",
      "to": "152598880",
      "length_m": 52.838,
      "name": "San Gabriel Street",
      "highway": "residential",
      "oneway": false,
      "maxspeed": "30 mph",
      "lanes": "2"
    },
    {
      "from": "152450091",
      "to": "152484855",
      "length_m": 103.402,
      "name": "San Gabriel Street",
      "highway": "residential",
      "oneway": false,
      "maxspeed": "30 mph",
      "lanes": "2"
    },
    {
      "from": "152484842",
      "to": "152484845",
      "length_m": 76.18599999999999,
      "name": "West 26th Street",
      "highway": "residential",
      "oneway": false,
      "maxspeed": "30 mph",
      "lanes": "2"
    },
    {
      "from": "152484842",
      "to": "152547492",
      "length_m": 152.413,
      "name": "Seton Avenue",
      "highway": "residential",
      "oneway": false,
      "maxspeed": null,
      "lanes": null
    },
    {
      "from": "152484845",
      "to": "152484847",
      "length_m": 91.809,
      "name": "West 26th Street",
      "highway": "residential",
      "oneway": false,
      "maxspeed": "30 mph",
      "lanes": "2"
    },
    {
      "from": "152484845",
      "to": "152484842",
      "length_m": 76.18599999999999,
      "name": "West 26th Street",
      "highway": "residential",
      "oneway": false,
      "maxspeed": "30 mph",
      "lanes": "2"
    },
    {
      "from": "152484845",
      "to": "152636860",
      "length_m": 306.41099999999994,
      "name": "Rio Grande Street",
      "highway": "tertiary",
      "oneway": true,
      "maxspeed": null,
      "lanes": "1"
    },
    {
      "from": "152484847",
      "to": "152484850",
      "length_m": 64.234,
      "name": "West 26th Street",
      "highway": "residential",
      "oneway": false,
      "maxspeed": "30 mph",
      "lanes": "2"
    },
    {
      "from": "152484847",
      "to": "152484845",
      "length_m": 91.809,
      "name": "West 26th Street",
      "highway": "residential",
      "oneway": false,
      "maxspeed": "30 mph",
      "lanes": "2"
    },
    {
      "from": "152484850",
      "to": "152580031",
      "length_m": 63.147000000000006,
      "name": "San Pedro Street",
      "highway": "residential",
      "oneway": false,
      "maxspeed": null,
      "lanes": null
    },
    {
      "from": "152484850",
      "to": "152484852",
      "length_m": 45.913000000000004,
      "name": "West 26th Street",
      "highway": "residential",
      "oneway": false,
      "maxspeed": "30 mph",
      "lanes": "2"
    },
    {
      "from": "152484850",
      "to": "152484847",
      "length_m": 64.234,
      "name": "West 26th Street",
      "highway": "residential",
      "oneway": false,
      "maxspeed": "30 mph",
      "lanes": "2"
    },
    {
      "from": "152484852",
      "to": "152484855",
      "length_m": 101.858,
      "name": "West 26th Street",
      "highway": "residential",
      "oneway": false,
      "maxspeed": "30 mph",
      "lanes": "2"
    },
    {
      "from": "152484852",
      "to": "152484850",
      "length_m": 45.913,
      "name": "West 26th Street",
      "highway": "residential",
      "oneway": false,
      "maxspeed": "30 mph",
      "lanes": "2"
    },
    {
      "from": "152484852",
      "to": "152713997",
      "length_m": 77.041,
      "name": "Pearl Street",
      "highway": "residential",
      "oneway": false,
      "maxspeed": "30 mph",
      "lanes": "2"
    },
    {
      "from": "152484855",
      "to": "152580031",
      "length_m": 211.598,
      "name": [
        "San Gabriel Street",
        "Poplar Street"
      ],
      "highway": "residential",
      "oneway": false,
      "maxspeed": null,
      "lanes": null
    },
    {
      "from": "152484855",
      "to": "152484852",
      "length_m": 101.85799999999999,
      "name": "West 26th Street",
      "highway": "residential",
      "oneway": false,
      "maxspeed": "30 mph",
      "lanes": "2"
    },
    {
      "from": "152484855",
      "to": "152450091",
      "length_m": 103.402,
      "name": "San Gabriel Street",
      "highway": "residential",
      "oneway": false,
      "maxspeed": "30 mph",
      "lanes": "2"
    },
    {
      "from": "152497112",
      "to": "152636860",
      "length_m": 97.015,
      "name": "West 28th Street",
      "highway": "residential",
      "oneway": false,
      "maxspeed": "30 mph",
      "lanes": "2"
    },
    {
      "from": "152497112",
      "to": "152484847",
      "length_m": 306.482,
      "name": "Salado Street",
      "highway": "residential",
      "oneway": true,
      "maxspeed": "30 mph",
      "lanes": "2"
    },
    {
      "from": "152497112",
      "to": "152580033",
      "length_m": 60.187000000000005,
      "name": "West 28th Street",
      "highway": "residential",
      "oneway": false,
      "maxspeed": "30 mph",
      "lanes": "2"
    },
    {
      "from": "152547492",
      "to": "152484842",
      "length_m": 152.413,
      "name": "Seton Avenue",
      "highway": "residential",
      "oneway": false,
      "maxspeed": null,
      "lanes": null
    },
    {
      "from": "152547492",
      "to": "152598876",
      "length_m": 74.953,
      "name": "West 25th Street",
      "highway": "residential",
      "oneway": false,
      "maxspeed": "30 mph",
      "lanes": "2"
    },
    {
      "from": "152580031",
      "to": "152398450",
      "length_m": 39.968,
      "name": "San Pedro Street",
      "highway": "residential",
      "oneway": true,
      "maxspeed": "25 mph",
      "lanes": "2"
    },
    {
      "from": "152580031",
      "to": "152484850",
      "length_m": 63.147000000000006,
      "name": "San Pedro Street",
      "highway": "residential",
      "oneway": false,
      "maxspeed": null,
      "lanes": null
    },
    {
      "from": "152580031",
      "to": "152484855",
      "length_m": 211.59799999999998,
      "name": [
        "San Gabriel Street",
        "Poplar Street"
      ],
      "highway": "residential",
      "oneway": false,
      "maxspeed": null,
      "lanes": null
    },
    {
      "from": "152580033",
      "to": "152497112",
      "length_m": 60.187000000000005,
      "name": "West 28th Street",
      "highway": "residential",
      "oneway": false,
      "maxspeed": "30 mph",
      "lanes": "2"
    },
    {
      "from": "152598876",
      "to": "152636858",
      "length_m": 74.528,
      "name": "Rio Grande Street",
      "highway": "tertiary",
      "oneway": true,
      "maxspeed": null,
      "lanes": "1"
    },
    {
      "from": "152598876",
      "to": "152598878",
      "length_m": 203.14600000000002,
      "name": "West 25th Street",
      "highway": "residential",
      "oneway": false,
      "maxspeed": "30 mph",
      "lanes": "2"
    },
    {
      "from": "152598876",
      "to": "152547492",
      "length_m": 74.953,
      "name": "West 25th Street",
      "highway": "residential",
      "oneway": false,
      "maxspeed": "30 mph",
      "lanes": "2"
    },
    {
      "from": "152598878",
      "to": "152713997",
      "length_m": 75.346,
      "name": "Pearl Street",
      "highway": "residential",
      "oneway": false,
      "maxspeed": "30 mph",
      "lanes": "2"
    },
    {
      "from": "152598878",
      "to": "152598880",
      "length_m": 101.91,
      "name": "West 25th Street",
      "highway": "residential",
      "oneway": false,
      "maxspeed": "30 mph",
      "lanes": "2"
    },
    {
      "from": "152598878",
      "to": "152598876",
      "length_m": 203.14600000000002,
      "name": "West 25th Street",
      "highway": "residential",
      "oneway": false,
      "maxspeed": "30 mph",
      "lanes": "2"
    },
    {
      "from": "152598880",
      "to": "152450091",
      "length_m": 52.838,
      "name": "San Gabriel Street",
      "highway": "residential",
      "oneway": false,
      "maxspeed": "30 mph",
      "lanes": "2"
    },
    {
      "from": "152598880",
      "to": "152598878",
      "length_m": 101.91,
      "name": "West 25th Street",
      "highway": "residential",
      "oneway": false,
      "maxspeed": "30 mph",
      "lanes": "2"
    },
    {
      "from": "152636858",
      "to": "152713997",
      "length_m": 203.946,
      "name": "Graham Place",
      "highway": "residential",
      "oneway": false,
      "maxspeed": null,
      "lanes": null
    },
    {
      "from": "152636858",
      "to": "152484845",
      "length_m": 76.768,
      "name": "Rio Grande Street",
      "highway": "tertiary",
      "oneway": true,
      "maxspeed": null,
      "lanes": "1"
    },
    {
      "from": "152636860",
      "to": "152497112",
      "length_m": 97.015,
      "name": "West 28th Street",
      "highway": "residential",
      "oneway": false,
      "maxspeed": "30 mph",
      "lanes": "2"
    },
    {
      "from": "152713997",
      "to": "152484852",
      "length_m": 77.041,
      "name": "Pearl Street",
      "highway": "residential",
      "oneway": false,
      "maxspeed": "30 mph",
      "lanes": "2"
    },
    {
      "from": "152713997",
      "to": "152598878",
      "length_m": 75.346,
      "name": "Pearl Street",
      "highway": "residential",
      "oneway": false,
      "maxspeed": "30 mph",
      "lanes": "2"
    },
    {
      "from": "152713997",
      "to": "152636858",
      "length_m": 203.94599999999997,
      "name": "Graham Place",
      "highway": "residential",
      "oneway": false,
      "maxspeed": null,
      "lanes": null
    }
  ]
}